{
"type": "FeatureCollection",
"name": "berlin_grid_data",
"crs": { "type": "name", "properties": { "name": "urn:ogc:def:crs:OGC:1.3:CRS84" } },
"features": [
{ "type": "Feature", "properties": { "solar_potential": 1061.8101782710437, "land_price": 107.73096397304336, "grid_congestion": 0.34211442022084748 }, "geometry": { "type": "Polygon", "coordinates": [ [ [ 13.1, 52.35 ], [ 13.15, 52.35 ], [ 13.15, 52.4 ], [ 13.1, 52.4 ], [ 13.1, 52.35 ] ] ] } },
{ "type": "Feature", "properties": { "solar_potential": 1926.0714596148744, "land_price": 1241.6459998367677, "grid_congestion": 0.13135390525135288 }, "geometry": { "type": "Polygon", "coordinates": [ [ [ 13.1, 52.4 ], [ 13.15, 52.4 ], [ 13.15, 52.45 ], [ 13.1, 52.45 ], [ 13.1, 52.4 ] ] ] } },
{ "type": "Feature", "properties": { "solar_potential": 1597.9909127171077, "land_price": 1089.6002813866639, "grid_congestion": 0.61812968388291223 }, "geometry": { "type": "Polygon", "coordinates": [ [ [ 13.1, 52.45 ], [ 13.15, 52.45 ], [ 13.15, 52.5 ], [ 13.1, 52.5 ], [ 13.1, 52.45 ] ] ] } },
{ "type": "Feature", "properties": { "solar_potential": 1397.9877262955549, "land_price": 1120.6100352573822, "grid_congestion": 0.5272771697445322 }, "geometry": { "type": "Polygon", "coordinates": [ [ [ 13.1, 52.5 ], [ 13.15, 52.5 ], [ 13.15, 52.55 ], [ 13.1, 52.55 ], [ 13.1, 52.5 ] ] ] } },
{ "type": "Feature", "properties": { "solar_potential": 734.02796066365477, "land_price": 1179.7784853603241, "grid_congestion": 0.14375693856249094 }, "geometry": { "type": "Polygon", "coordinates": [ [ [ 13.1, 52.55 ], [ 13.15, 52.55 ], [ 13.15, 52.6 ], [ 13.1, 52.6 ], [ 13.1, 52.55 ] ] ] } },
{ "type": "Feature", "properties": { "solar_potential": 733.99178050430396, "land_price": 203.66251242772651, "grid_congestion": 0.33684949460111968 }, "geometry": { "type": "Polygon", "coordinates": [ [ [ 13.1, 52.6 ], [ 13.15, 52.6 ], [ 13.15, 52.65 ], [ 13.1, 52.65 ], [ 13.1, 52.6 ] ] ] } },
{ "type": "Feature", "properties": { "solar_potential": 587.12541825229914, "land_price": 601.85201996198168, "grid_congestion": 0.87202600307165556 }, "geometry": { "type": "Polygon", "coordinates": [ [ [ 13.15, 52.35 ], [ 13.2, 52.35 ], [ 13.2, 52.4 ], [ 13.15, 52.4 ], [ 13.15, 52.35 ] ] ] } },
{ "type": "Feature", "properties": { "solar_potential": 1799.2642186624028, "land_price": 262.21668333518159, "grid_congestion": 0.3036276070669266 }, "geometry": { "type": "Polygon", "coordinates": [ [ [ 13.15, 52.4 ], [ 13.2, 52.4 ], [ 13.2, 52.45 ], [ 13.15, 52.45 ], [ 13.15, 52.4 ] ] ] } },
{ "type": "Feature", "properties": { "solar_potential": 1401.6725176148132, "land_price": 1308.344796225831, "grid_congestion": 0.22316064127753965 }, "geometry": { "type": "Polygon", "coordinates": [ [ [ 13.15, 52.45 ], [ 13.2, 52.45 ], [ 13.2, 52.5 ], [ 13.15, 52.5 ], [ 13.15, 52.45 ] ] ] } },
{ "type": "Feature", "properties": { "solar_potential": 1562.1088666940682, "land_price": 972.6173775585811, "grid_congestion": 0.51603484623592855 }, "geometry": { "type": "Polygon", "coordinates": [ [ [ 13.15, 52.5 ], [ 13.2, 52.5 ], [ 13.2, 52.55 ], [ 13.15, 52.55 ], [ 13.15, 52.5 ] ] ] } },
{ "type": "Feature", "properties": { "solar_potential": 530.87674144370362, "land_price": 563.2572347937089, "grid_congestion": 0.93780288599401052 }, "geometry": { "type": "Polygon", "coordinates": [ [ [ 13.15, 52.55 ], [ 13.2, 52.55 ], [ 13.2, 52.6 ], [ 13.15, 52.6 ], [ 13.15, 52.55 ] ] ] } },
{ "type": "Feature", "properties": { "solar_potential": 1954.8647782429914, "land_price": 188.98169040043308, "grid_congestion": 0.30574698078477536 }, "geometry": { "type": "Polygon", "coordinates": [ [ [ 13.15, 52.6 ], [ 13.2, 52.6 ], [ 13.2, 52.65 ], [ 13.15, 52.65 ], [ 13.15, 52.6 ] ] ] } },
{ "type": "Feature", "properties": { "solar_potential": 1748.6639612006327, "land_price": 535.37525040192713, "grid_congestion": 0.67131521529499671 }, "geometry": { "type": "Polygon", "coordinates": [ [ [ 13.2, 52.35 ], [ 13.25, 52.35 ], [ 13.25, 52.4 ], [ 13.2, 52.4 ], [ 13.2, 52.35 ] ] ] } },
{ "type": "Feature", "properties": { "solar_potential": 818.50866601741427, "land_price": 555.25665083744593, "grid_congestion": 0.74737667302940991 }, "geometry": { "type": "Polygon", "coordinates": [ [ [ 13.2, 52.4 ], [ 13.25, 52.4 ], [ 13.25, 52.45 ], [ 13.2, 52.45 ], [ 13.2, 52.4 ] ] ] } },
{ "type": "Feature", "properties": { "solar_potential": 772.7374508106509, "land_price": 1121.4486496732898, "grid_congestion": 0.30199191239353973 }, "geometry": { "type": "Polygon", "coordinates": [ [ [ 13.2, 52.45 ], [ 13.25, 52.45 ], [ 13.25, 52.5 ], [ 13.2, 52.5 ], [ 13.2, 52.45 ] ] ] } },
{ "type": "Feature", "properties": { "solar_potential": 775.1067647801508, "land_price": 992.5804598972984, "grid_congestion": 0.71898389632008064 }, "geometry": { "type": "Polygon", "coordinates": [ [ [ 13.2, 52.5 ], [ 13.25, 52.5 ], [ 13.25, 52.55 ], [ 13.2, 52.55 ], [ 13.2, 52.5 ] ] ] } },
{ "type": "Feature", "properties": { "solar_potential": 956.36336443930657, "land_price": 1342.0978396068572, "grid_congestion": 0.41261566281136519 }, "geometry": { "type": "Polygon", "coordinates": [ [ [ 13.2, 52.55 ], [ 13.25, 52.55 ], [ 13.25, 52.6 ], [ 13.2, 52.6 ], [ 13.2, 52.55 ] ] ] } },
{ "type": "Feature", "properties": { "solar_potential": 1287.1346474483566, "land_price": 761.10089522672899, "grid_congestion": 0.63745995600454253 }, "geometry": { "type": "Polygon", "coordinates": [ [ [ 13.2, 52.6 ], [ 13.25, 52.6 ], [ 13.25, 52.65 ], [ 13.2, 52.65 ], [ 13.2, 52.6 ] ] ] } },
{ "type": "Feature", "properties": { "solar_potential": 1147.9175279631736, "land_price": 267.43194431362235, "grid_congestion": 0.63850025414676048 }, "geometry": { "type": "Polygon", "coordinates": [ [ [ 13.25, 52.35 ], [ 13.3, 52.35 ], [ 13.3, 52.4 ], [ 13.25, 52.4 ], [ 13.25, 52.35 ] ] ] } },
{ "type": "Feature", "properties": { "solar_potential": 936.8437102970629, "land_price": 1098.542702112193, "grid_congestion": 0.55540848146354471 }, "geometry": { "type": "Polygon", "coordinates": [ [ [ 13.25, 52.4 ], [ 13.3, 52.4 ], [ 13.3, 52.45 ], [ 13.25, 52.45 ], [ 13.25, 52.4 ] ] ] } },
{ "type": "Feature", "properties": { "solar_potential": 1417.7793420835692, "land_price": 1165.0990680636564, "grid_congestion": 0.17674630454624707 }, "geometry": { "type": "Polygon", "coordinates": [ [ [ 13.25, 52.45 ], [ 13.3, 52.45 ], [ 13.3, 52.5 ], [ 13.25, 52.5 ], [ 13.25, 52.45 ] ] ] } },
{ "type": "Feature", "properties": { "solar_potential": 709.24079097806271, "land_price": 885.78807659729478, "grid_congestion": 0.81000712125085228 }, "geometry": { "type": "Polygon", "coordinates": [ [ [ 13.25, 52.5 ], [ 13.3, 52.5 ], [ 13.3, 52.55 ], [ 13.25, 52.55 ], [ 13.25, 52.5 ] ] ] } },
{ "type": "Feature", "properties": { "solar_potential": 938.21697280282729, "land_price": 1179.3540519363853, "grid_congestion": 0.37266305522597543 }, "geometry": { "type": "Polygon", "coordinates": [ [ [ 13.25, 52.55 ], [ 13.3, 52.55 ], [ 13.3, 52.6 ], [ 13.25, 52.6 ], [ 13.25, 52.55 ] ] ] } },
{ "type": "Feature", "properties": { "solar_potential": 1049.5427649405376, "land_price": 791.31383491014708, "grid_congestion": 0.25854073383987608 }, "geometry": { "type": "Polygon", "coordinates": [ [ [ 13.25, 52.6 ], [ 13.3, 52.6 ], [ 13.3, 52.65 ], [ 13.25, 52.65 ], [ 13.25, 52.6 ] ] ] } },
{ "type": "Feature", "properties": { "solar_potential": 1184.1049763255539, "land_price": 831.82596113479167, "grid_congestion": 0.13465887032154933 }, "geometry": { "type": "Polygon", "coordinates": [ [ [ 13.3, 52.35 ], [ 13.35, 52.35 ], [ 13.35, 52.4 ], [ 13.3, 52.4 ], [ 13.3, 52.35 ] ] ] } },
{ "type": "Feature", "properties": { "solar_potential": 1677.7639420895205, "land_price": 698.55742570196946, "grid_congestion": 0.60225900171000546 }, "geometry": { "type": "Polygon", "coordinates": [ [ [ 13.3, 52.4 ], [ 13.35, 52.4 ], [ 13.35, 52.45 ], [ 13.3, 52.45 ], [ 13.3, 52.4 ] ] ] } },
{ "type": "Feature", "properties": { "solar_potential": 799.51067323753955, "land_price": 135.58677744173326, "grid_congestion": 0.67592970756594006 }, "geometry": { "type": "Polygon", "coordinates": [ [ [ 13.3, 52.45 ], [ 13.35, 52.45 ], [ 13.35, 52.5 ], [ 13.3, 52.5 ], [ 13.3, 52.45 ] ] ] } },
{ "type": "Feature", "properties": { "solar_potential": 1271.3516576204174, "land_price": 251.04799779062623, "grid_congestion": 0.11409965458867774 }, "geometry": { "type": "Polygon", "coordinates": [ [ [ 13.3, 52.5 ], [ 13.35, 52.5 ], [ 13.35, 52.55 ], [ 13.3, 52.55 ], [ 13.3, 52.5 ] ] ] } },
{ "type": "Feature", "properties": { "solar_potential": 1388.6218532930639, "land_price": 144.00085996142795, "grid_congestion": 0.53527909955438879 }, "geometry": { "type": "Polygon", "coordinates": [ [ [ 13.3, 52.55 ], [ 13.35, 52.55 ], [ 13.35, 52.6 ], [ 13.3, 52.6 ], [ 13.3, 52.55 ] ] ] } },
{ "type": "Feature", "properties": { "solar_potential": 569.67561907999664, "land_price": 990.97457576929253, "grid_congestion": 0.29252140891824729 }, "geometry": { "type": "Polygon", "coordinates": [ [ [ 13.3, 52.6 ], [ 13.35, 52.6 ], [ 13.35, 52.65 ], [ 13.3, 52.65 ], [ 13.3, 52.6 ] ] ] } },
{ "type": "Feature", "properties": { "solar_potential": 1411.3172778521575, "land_price": 540.09837350685734, "grid_congestion": 0.6483968718480323 }, "geometry": { "type": "Polygon", "coordinates": [ [ [ 13.35, 52.35 ], [ 13.4, 52.35 ], [ 13.4, 52.4 ], [ 13.35, 52.4 ], [ 13.35, 52.35 ] ] ] } },
{ "type": "Feature", "properties": { "solar_potential": 755.78618553093725, "land_price": 811.99896763058393, "grid_congestion": 0.24821146465424274 }, "geometry": { "type": "Polygon", "coordinates": [ [ [ 13.35, 52.4 ], [ 13.4, 52.4 ], [ 13.4, 52.45 ], [ 13.35, 52.45 ], [ 13.35, 52.4 ] ] ] } },
{ "type": "Feature", "properties": { "solar_potential": 597.57738947791927, "land_price": 1370.5930634965302, "grid_congestion": 0.687297077387096 }, "geometry": { "type": "Polygon", "coordinates": [ [ [ 13.35, 52.45 ], [ 13.4, 52.45 ], [ 13.4, 52.5 ], [ 13.35, 52.5 ], [ 13.35, 52.45 ] ] ] } },
{ "type": "Feature", "properties": { "solar_potential": 1923.3283058799998, "land_price": 449.00912080842494, "grid_congestion": 0.42872504435545677 }, "geometry": { "type": "Polygon", "coordinates": [ [ [ 13.35, 52.5 ], [ 13.4, 52.5 ], [ 13.4, 52.55 ], [ 13.35, 52.55 ], [ 13.35, 52.5 ] ] ] } },
{ "type": "Feature", "properties": { "solar_potential": 1948.448049611839, "land_price": 674.53609224988168, "grid_congestion": 0.89622049042622431 }, "geometry": { "type": "Polygon", "coordinates": [ [ [ 13.35, 52.55 ], [ 13.4, 52.55 ], [ 13.4, 52.6 ], [ 13.35, 52.6 ], [ 13.35, 52.55 ] ] ] } },
{ "type": "Feature", "properties": { "solar_potential": 1712.5960221746916, "land_price": 1157.7715939602681, "grid_congestion": 0.21689280252409426 }, "geometry": { "type": "Polygon", "coordinates": [ [ [ 13.35, 52.6 ], [ 13.4, 52.6 ], [ 13.4, 52.65 ], [ 13.35, 52.65 ], [ 13.35, 52.6 ] ] ] } },
{ "type": "Feature", "properties": { "solar_potential": 956.92065376005598, "land_price": 420.31743168827143, "grid_congestion": 0.38990639839271968 }, "geometry": { "type": "Polygon", "coordinates": [ [ [ 13.4, 52.35 ], [ 13.45, 52.35 ], [ 13.45, 52.4 ], [ 13.4, 52.4 ], [ 13.4, 52.35 ] ] ] } },
{ "type": "Feature", "properties": { "solar_potential": 646.50817100957579, "land_price": 207.7718737603102, "grid_congestion": 0.19645249305450072 }, "geometry": { "type": "Polygon", "coordinates": [ [ [ 13.4, 52.4 ], [ 13.45, 52.4 ], [ 13.45, 52.45 ], [ 13.4, 52.45 ], [ 13.4, 52.4 ] ] ] } },
{ "type": "Feature", "properties": { "solar_potential": 1526.3495397682354, "land_price": 505.65203407927521, "grid_congestion": 0.88598957553677837 }, "geometry": { "type": "Polygon", "coordinates": [ [ [ 13.4, 52.45 ], [ 13.45, 52.45 ], [ 13.45, 52.5 ], [ 13.4, 52.5 ], [ 13.4, 52.45 ] ] ] } },
{ "type": "Feature", "properties": { "solar_potential": 1160.2287406094019, "land_price": 325.70980215560621, "grid_congestion": 0.84573845037383377 }, "geometry": { "type": "Polygon", "coordinates": [ [ [ 13.4, 52.5 ], [ 13.45, 52.5 ], [ 13.45, 52.55 ], [ 13.4, 52.55 ], [ 13.4, 52.5 ] ] ] } },
{ "type": "Feature", "properties": { "solar_potential": 683.0573522671682, "land_price": 1401.5767132796022, "grid_congestion": 0.31925038355788227 }, "geometry": { "type": "Polygon", "coordinates": [ [ [ 13.4, 52.55 ], [ 13.45, 52.55 ], [ 13.45, 52.6 ], [ 13.4, 52.6 ], [ 13.4, 52.55 ] ] ] } },
{ "type": "Feature", "properties": { "solar_potential": 1242.7653651669052, "land_price": 1231.3685313901838, "grid_congestion": 0.66098643912905219 }, "geometry": { "type": "Polygon", "coordinates": [ [ [ 13.4, 52.6 ], [ 13.45, 52.6 ], [ 13.45, 52.65 ], [ 13.4, 52.65 ], [ 13.4, 52.6 ] ] ] } },
{ "type": "Feature", "properties": { "solar_potential": 551.58278167282765, "land_price": 986.76525911459282, "grid_congestion": 0.79463887017103341 }, "geometry": { "type": "Polygon", "coordinates": [ [ [ 13.45, 52.35 ], [ 13.5, 52.35 ], [ 13.5, 52.4 ], [ 13.45, 52.4 ], [ 13.45, 52.35 ] ] ] } },
{ "type": "Feature", "properties": { "solar_potential": 1863.9806031181731, "land_price": 1320.0448262628047, "grid_congestion": 0.57192068985954292 }, "geometry": { "type": "Polygon", "coordinates": [ [ [ 13.45, 52.4 ], [ 13.5, 52.4 ], [ 13.5, 52.45 ], [ 13.45, 52.45 ], [ 13.45, 52.4 ] ] ] } },
{ "type": "Feature", "properties": { "solar_potential": 888.16997240002536, "land_price": 1225.1409076587602, "grid_congestion": 0.55020299160260555 }, "geometry": { "type": "Polygon", "coordinates": [ [ [ 13.45, 52.45 ], [ 13.5, 52.45 ], [ 13.5, 52.5 ], [ 13.45, 52.5 ], [ 13.45, 52.45 ] ] ] } },
{ "type": "Feature", "properties": { "solar_potential": 1493.783426530973, "land_price": 361.19808244045015, "grid_congestion": 0.30557444726538396 }, "geometry": { "type": "Polygon", "coordinates": [ [ [ 13.45, 52.5 ], [ 13.5, 52.5 ], [ 13.5, 52.55 ], [ 13.45, 52.55 ], [ 13.45, 52.5 ] ] ] } },
{ "type": "Feature", "properties": { "solar_potential": 967.56661413411643, "land_price": 1349.5825978859689, "grid_congestion": 0.17913735263501435 }, "geometry": { "type": "Polygon", "coordinates": [ [ [ 13.45, 52.55 ], [ 13.5, 52.55 ], [ 13.5, 52.6 ], [ 13.45, 52.6 ], [ 13.45, 52.55 ] ] ] } },
{ "type": "Feature", "properties": { "solar_potential": 1280.1020317667162, "land_price": 855.07913868191099, "grid_congestion": 0.8626333942603277 }, "geometry": { "type": "Polygon", "coordinates": [ [ [ 13.45, 52.6 ], [ 13.5, 52.6 ], [ 13.5, 52.65 ], [ 13.45, 52.65 ], [ 13.45, 52.6 ] ] ] } },
{ "type": "Feature", "properties": { "solar_potential": 1320.0654190149194, "land_price": 1230.4162172296876, "grid_congestion": 0.8653553485888309 }, "geometry": { "type": "Polygon", "coordinates": [ [ [ 13.5, 52.35 ], [ 13.55, 52.35 ], [ 13.55, 52.4 ], [ 13.5, 52.4 ], [ 13.5, 52.35 ] ] ] } },
{ "type": "Feature", "properties": { "solar_potential": 777.28168328829054, "land_price": 1354.5278198928904, "grid_congestion": 0.63813623868227776 }, "geometry": { "type": "Polygon", "coordinates": [ [ [ 13.5, 52.4 ], [ 13.55, 52.4 ], [ 13.55, 52.45 ], [ 13.5, 52.45 ], [ 13.5, 52.4 ] ] ] } },
{ "type": "Feature", "properties": { "solar_potential": 1954.3769416468378, "land_price": 545.20486496060948, "grid_congestion": 0.38817532239139563 }, "geometry": { "type": "Polygon", "coordinates": [ [ [ 13.5, 52.45 ], [ 13.55, 52.45 ], [ 13.55, 52.5 ], [ 13.5, 52.5 ], [ 13.5, 52.45 ] ] ] } },
{ "type": "Feature", "properties": { "solar_potential": 1662.6992350416717, "land_price": 254.07269433874745, "grid_congestion": 0.3968281384207617 }, "geometry": { "type": "Polygon", "coordinates": [ [ [ 13.5, 52.5 ], [ 13.55, 52.5 ], [ 13.55, 52.55 ], [ 13.5, 52.55 ], [ 13.5, 52.5 ] ] ] } },
{ "type": "Feature", "properties": { "solar_potential": 1909.2484123462837, "land_price": 419.10922755871837, "grid_congestion": 0.71706232703970341 }, "geometry": { "type": "Polygon", "coordinates": [ [ [ 13.5, 52.55 ], [ 13.55, 52.55 ], [ 13.55, 52.6 ], [ 13.5, 52.6 ], [ 13.5, 52.55 ] ] ] } },
{ "type": "Feature", "properties": { "solar_potential": 1842.2410256414732, "land_price": 697.95090407675889, "grid_congestion": 0.86254372095969045 }, "geometry": { "type": "Polygon", "coordinates": [ [ [ 13.5, 52.6 ], [ 13.55, 52.6 ], [ 13.55, 52.65 ], [ 13.5, 52.65 ], [ 13.5, 52.6 ] ] ] } },
{ "type": "Feature", "properties": { "solar_potential": 1396.8499682166278, "land_price": 1245.2206722914905, "grid_congestion": 0.85402346062534962 }, "geometry": { "type": "Polygon", "coordinates": [ [ [ 13.55, 52.35 ], [ 13.6, 52.35 ], [ 13.6, 52.4 ], [ 13.55, 52.4 ], [ 13.55, 52.35 ] ] ] } },
{ "type": "Feature", "properties": { "solar_potential": 1882.8113525346753, "land_price": 1305.0228165588808, "grid_congestion": 0.76289421397898027 }, "geometry": { "type": "Polygon", "coordinates": [ [ [ 13.55, 52.4 ], [ 13.6, 52.4 ], [ 13.6, 52.45 ], [ 13.55, 52.45 ], [ 13.55, 52.4 ] ] ] } },
{ "type": "Feature", "properties": { "solar_potential": 632.73875307787921, "land_price": 109.73298274366698, "grid_congestion": 0.64572689923114457 }, "geometry": { "type": "Polygon", "coordinates": [ [ [ 13.55, 52.45 ], [ 13.6, 52.45 ], [ 13.6, 52.5 ], [ 13.55, 52.5 ], [ 13.55, 52.45 ] ] ] } },
{ "type": "Feature", "properties": { "solar_potential": 793.97429362871776, "land_price": 815.04622360859207, "grid_congestion": 0.17151897024579149 }, "geometry": { "type": "Polygon", "coordinates": [ [ [ 13.55, 52.5 ], [ 13.6, 52.5 ], [ 13.6, 52.55 ], [ 13.55, 52.55 ], [ 13.55, 52.5 ] ] ] } },
{ "type": "Feature", "properties": { "solar_potential": 567.84093336580713, "land_price": 684.37540440829059, "grid_congestion": 0.23738440698042171 }, "geometry": { "type": "Polygon", "coordinates": [ [ [ 13.55, 52.55 ], [ 13.6, 52.55 ], [ 13.6, 52.6 ], [ 13.55, 52.6 ], [ 13.55, 52.55 ] ] ] } },
{ "type": "Feature", "properties": { "solar_potential": 987.99549614489649, "land_price": 410.95093465902232, "grid_congestion": 0.86377106024801731 }, "geometry": { "type": "Polygon", "coordinates": [ [ [ 13.55, 52.6 ], [ 13.6, 52.6 ], [ 13.6, 52.65 ], [ 13.55, 52.65 ], [ 13.55, 52.6 ] ] ] } },
{ "type": "Feature", "properties": { "solar_potential": 1083.0159345342231, "land_price": 267.81151426715593, "grid_congestion": 0.6154647007106514 }, "geometry": { "type": "Polygon", "coordinates": [ [ [ 13.6, 52.35 ], [ 13.65, 52.35 ], [ 13.65, 52.4 ], [ 13.6, 52.4 ], [ 13.6, 52.35 ] ] ] } },
{ "type": "Feature", "properties": { "solar_potential": 907.02354766084386, "land_price": 572.66123996507918, "grid_congestion": 0.10781749387413521 }, "geometry": { "type": "Polygon", "coordinates": [ [ [ 13.6, 52.4 ], [ 13.65, 52.4 ], [ 13.65, 52.45 ], [ 13.6, 52.45 ], [ 13.6, 52.4 ] ] ] } },
{ "type": "Feature", "properties": { "solar_potential": 1743.106263727894, "land_price": 1420.0735854775269, "grid_congestion": 0.18625081143612729 }, "geometry": { "type": "Polygon", "coordinates": [ [ [ 13.6, 52.45 ], [ 13.65, 52.45 ], [ 13.65, 52.5 ], [ 13.6, 52.5 ], [ 13.6, 52.45 ] ] ] } },
{ "type": "Feature", "properties": { "solar_potential": 1035.129990040384, "land_price": 552.48410482905729, "grid_congestion": 0.66397650374184736 }, "geometry": { "type": "Polygon", "coordinates": [ [ [ 13.6, 52.5 ], [ 13.65, 52.5 ], [ 13.65, 52.55 ], [ 13.6, 52.55 ], [ 13.6, 52.5 ] ] ] } },
{ "type": "Feature", "properties": { "solar_potential": 921.40176453107119, "land_price": 826.30687044071249, "grid_congestion": 0.10430234626928589 }, "geometry": { "type": "Polygon", "coordinates": [ [ [ 13.6, 52.55 ], [ 13.65, 52.55 ], [ 13.65, 52.6 ], [ 13.6, 52.6 ], [ 13.6, 52.55 ] ] ] } },
{ "type": "Feature", "properties": { "solar_potential": 1314.0441247373728, "land_price": 1084.2265424532488, "grid_congestion": 0.23668684370487386 }, "geometry": { "type": "Polygon", "coordinates": [ [ [ 13.6, 52.6 ], [ 13.65, 52.6 ], [ 13.65, 52.65 ], [ 13.6, 52.65 ], [ 13.6, 52.6 ] ] ] } },
{ "type": "Feature", "properties": { "solar_potential": 711.38633746214396, "land_price": 609.08144333101154, "grid_congestion": 0.56642372096159821 }, "geometry": { "type": "Polygon", "coordinates": [ [ [ 13.65, 52.35 ], [ 13.7, 52.35 ], [ 13.7, 52.4 ], [ 13.65, 52.4 ], [ 13.65, 52.35 ] ] ] } },
{ "type": "Feature", "properties": { "solar_potential": 1703.2954711310595, "land_price": 1460.494915809345, "grid_congestion": 0.68811091803878921 }, "geometry": { "type": "Polygon", "coordinates": [ [ [ 13.65, 52.4 ], [ 13.7, 52.4 ], [ 13.7, 52.45 ], [ 13.65, 52.45 ], [ 13.65, 52.4 ] ] ] } },
{ "type": "Feature", "properties": { "solar_potential": 611.82596551965628, "land_price": 1447.4262129189558, "grid_congestion": 0.65416707057721046 }, "geometry": { "type": "Polygon", "coordinates": [ [ [ 13.65, 52.45 ], [ 13.7, 52.45 ], [ 13.7, 52.5 ], [ 13.65, 52.5 ], [ 13.65, 52.45 ] ] ] } },
{ "type": "Feature", "properties": { "solar_potential": 1980.3304049007759, "land_price": 452.49521415550981, "grid_congestion": 0.29062891304147581 }, "geometry": { "type": "Polygon", "coordinates": [ [ [ 13.65, 52.5 ], [ 13.7, 52.5 ], [ 13.7, 52.55 ], [ 13.65, 52.55 ], [ 13.65, 52.5 ] ] ] } },
{ "type": "Feature", "properties": { "solar_potential": 1658.3671539449861, "land_price": 796.14790824933959, "grid_congestion": 0.70535233814540543 }, "geometry": { "type": "Polygon", "coordinates": [ [ [ 13.65, 52.55 ], [ 13.7, 52.55 ], [ 13.7, 52.6 ], [ 13.65, 52.6 ], [ 13.65, 52.55 ] ] ] } },
{ "type": "Feature", "properties": { "solar_potential": 798.07352230125866, "land_price": 521.22963374347751, "grid_congestion": 0.30166172437228006 }, "geometry": { "type": "Polygon", "coordinates": [ [ [ 13.65, 52.6 ], [ 13.7, 52.6 ], [ 13.7, 52.65 ], [ 13.65, 52.65 ], [ 13.65, 52.6 ] ] ] } }
]
}
